COSMOS 2413 (712)       
1 28509U 04053B   15113.48606141 -.00000013  00000-0  10000-3 0  9996
2 28509  63.1424 205.0806 0005563 172.5481 132.3324  2.13101759 80335
COSMOS 2419 (714)       
1 28915U 05050A   15112.73344758  .00000022  00000-0  00000+0 0  9999
2 28915  65.1490  92.3974 0017772 343.2323  98.4055  2.13107440 72574
COSMOS 2425 (716)       
1 29670U 06062A   15113.16851443 -.00000054  00000-0  10000-3 0  9995
2 29670  65.7906 331.2880 0023070 350.3698 131.4577  2.13105016 64782
COSMOS 2426 (717)       
1 29671U 06062B   15113.43799707 -.00000054  00000-0  10000-3 0  9990
2 29671  65.8072 331.3511 0015517 158.1073  34.3799  2.13103047 64798
COSMOS 2424 (715)       
1 29672U 06062C   15113.10559546 -.00000054  00000-0  10000-3 0  9990
2 29672  65.7928 331.2981 0015086 156.5967 318.3373  2.13102126 64782
COSMOS 2433 (720)       
1 32275U 07052A   15113.81797502  .00000030  00000-0  10000-3 0  9990
2 32275  65.1642  92.1236 0005194 277.1240 174.0755  2.13104972 58315
COSMOS 2432 (719)       
1 32276U 07052B   15113.29742976  .00000026  00000-0  10000-3 0  9993
2 32276  65.1763  92.2000 0014126 329.7395  36.8911  2.13104363 58302
COSMOS 2434 (721)       
1 32393U 07065A   15113.56095385 -.00000054  00000-0  00000+0 0  9999
2 32393  65.4117 330.7968 0005230  85.5919  64.1655  2.13102818 57015
COSMOS 2436 (723)       
1 32395U 07065C   15113.38658596 -.00000054  00000-0  10000-3 0  9995
2 32395  65.4261 330.8389 0018653 358.8209 109.1730  2.13102886 56946
COSMOS 2443 (725)       
1 33379U 08046B   15113.47124968  .00000027  00000-0  10000-3 0  9998
2 33379  65.0914  91.5929 0017756 193.8873 261.5800  2.13101484 51172
COSMOS 2456 (730)       
1 36111U 09070A   15112.34011074 -.00000000  00000-0  00000+0 0  9998
2 36111  64.2007 210.5292 0004103 321.1671 139.3266  2.13102932 41652
COSMOS 2457 (733)       
1 36112U 09070B   15113.45605906 -.00000012  00000-0  00000+0 0  9998
2 36112  64.1824 210.4268 0007042 161.4777 207.4253  2.13101503 41687
COSMOS 2458 (734)       
1 36113U 09070C   15113.45719060 -.00000012  00000-0  10000-3 0  9991
2 36113  64.1882 210.4305 0001290  37.6985  18.9875  2.13102079 41682
COSMOS 2459 (731)       
1 36400U 10007A   15113.39141907  .00000026  00000-0  10000-3 0  9998
2 36400  65.0702  91.3422 0030533 349.0169   4.0189  2.13102278 40026
COSMOS 2461 (735)       
1 36401U 10007B   15112.73338337  .00000021  00000-0  10000-3 0  9996
2 36401  65.0626  91.3503 0003888  50.0177  68.7118  2.13102470 40015
COSMOS 2460 (732)       
1 36402U 10007C   15113.10008388  .00000023  00000-0  10000-3 0  9991
2 36402  65.0530  91.3199 0002767 288.2408 154.3422  2.13102032 40023
COSMOS 2466 (738)       
1 37137U 10041A   15113.53297986 -.00000055  00000-0  10000-3 0  9992
2 37137  64.9964 331.1175 0019671 146.8104 205.2849  2.13102397 36108
COSMOS 2465 (737)       
1 37138U 10041B   15113.59456672 -.00000055  00000-0  00000+0 0  9993
2 37138  65.0123 331.1805 0033170 164.7656  56.7422  2.13102793 36105
COSMOS 2464 (736)       
1 37139U 10041C   15113.74328419 -.00000055  00000-0  00000+0 0  9998
2 37139  65.0149 331.1666 0023740  16.4127  93.7129  2.13102846 36112
COSMOS 2471 (701K)      
1 37372U 11009A   15113.10704384  .00000023  00000-0  00000+0 0  9995
2 37372  65.0502  91.2705 0009129 245.2580 333.8446  2.13102976 32291
COSMOS 2474 (742)       
1 37829U 11055A   15113.74984096 -.00000015  00000-0  00000+0 0  9995
2 37829  64.5241 210.7193 0007577 253.7726  71.5362  2.13101906 27673
COSMOS 2476 (744)       
1 37867U 11064A   15113.78098333 -.00000015  00000-0  00000+0 0  9991
2 37867  64.5043 210.8107 0016251 249.4176 145.4224  2.13102055 27035
COSMOS 2477 (745)       
1 37868U 11064B   15112.90184019 -.00000005  00000-0  00000+0 0  9991
2 37868  64.5124 210.8762 0014163 250.9108   8.9998  2.13101865 26965
COSMOS 2475 (743)       
1 37869U 11064C   15112.96726972 -.00000006  00000-0  00000+0 0  9999
2 37869  64.5194 210.8577 0020397 279.2877 346.6657  2.13101937 26975
COSMOS 2478 (746)       
1 37938U 11071A   15113.57880362  .00000055  00000-0  10000-3 0  9994
2 37938  65.0779  91.4606 0014494 246.7714 113.0648  2.13084431 26596
COSMOS 2485 (747)       
1 39155U 13019A   15112.85949735 -.00000005  00000-0  00000+0 0  9992
2 39155  64.6732 210.7000 0016229 243.8889 209.2807  2.13102075 15482
COSMOS 2492 (754)       
1 39620U 14012A   15113.35715968  .00000025  00000-0  10000-3 0  9994
2 39620  64.9412  91.3590 0017935 328.1015 178.6208  2.13103544  8463
COSMOS 2500 (755)       
1 40001U 14032A   15113.30954809  .00000025  00000-0  00000+0 0  9990
2 40001  64.8812  91.4165 0006999 228.8418 105.7868  2.13103072  6659
COSMOS 2501 (702K)      
1 40315U 14075A   15113.74393855 -.00000057  00000-0  00000+0 0  9997
2 40315  64.7800 332.7514 0015490 240.2654 231.2532  2.13101465  3078
